[{"OBJECT_NAME":"STARLINK-36750","OBJECT_ID":"2026-025C","EPOCH":"2026-03-03T06:52:12.082944","MEAN_MOTION":15.80921069,"ECCENTRICITY":0.00010465,"INCLINATION":97.2842,"RA_OF_ASC_NODE":173.5752,"ARG_OF_PERICENTER":89.5564,"MEAN_ANOMALY":270.5824,"EPHEMERIS_TYPE":0,"CLASSIFICATION_TYPE":"U","NORAD_CAT_ID":67695,"ELEMENT_SET_NO":999,"REV_AT_EPOCH":493,"BSTAR":0.0011959117,"MEAN_MOTION_DOT":0.00236378,"MEAN_MOTION_DDOT":0},{"OBJECT_NAME":"STARLINK-36401","OBJECT_ID":"2026-025D","EPOCH":"2026-03-03T14:00:03.000384","MEAN_MOTION":15.75187263,"ECCENTRICITY":0.00010475,"INCLINATION":97.2852,"RA_OF_ASC_NODE":173.8657,"ARG_OF_PERICENTER":83.8308,"MEAN_ANOMALY":112.1595,"EPHEMERIS_TYPE":0,"CLASSIFICATION_TYPE":"U","NORAD_CAT_ID":67696,"ELEMENT_SET_NO":999,"REV_AT_EPOCH":487,"BSTAR":-0.00021935994,"MEAN_MOTION_DOT":-0.00032719,"MEAN_MOTION_DDOT":0},{"OBJECT_NAME":"STARLINK-36704","OBJECT_ID":"2026-025E","EPOCH":"2026-03-03T05:49:39.177984","MEAN_MOTION":15.75381338,"ECCENTRICITY":0.00011787,"INCLINATION":97.2846,"RA_OF_ASC_NODE":173.4788,"ARG_OF_PERICENTER":99.2142,"MEAN_ANOMALY":260.9257,"EPHEMERIS_TYPE":0,"CLASSIFICATION_TYPE":"U","NORAD_CAT_ID":67697,"ELEMENT_SET_NO":999,"REV_AT_EPOCH":492,"BSTAR":0.0029580766,"MEAN_MOTION_DOT":0.00470159,"MEAN_MOTION_DDOT":0},{"OBJECT_NAME":"STARLINK-36697","OBJECT_ID":"2026-025F","EPOCH":"2026-03-03T06:42:53.786016","MEAN_MOTION":15.80861983,"ECCENTRICITY":0.00014395,"INCLINATION":97.2849,"RA_OF_ASC_NODE":173.5833,"ARG_OF_PERICENTER":9.1953,"MEAN_ANOMALY":350.9341,"EPHEMERIS_TYPE":0,"CLASSIFICATION_TYPE":"U","NORAD_CAT_ID":67698,"ELEMENT_SET_NO":999,"REV_AT_EPOCH":493,"BSTAR":0.00093660919,"MEAN_MOTION_DOT":0.00183471,"MEAN_MOTION_DDOT":0},{"OBJECT_NAME":"STARLINK-36716","OBJECT_ID":"2026-025G","EPOCH":"2026-03-03T14:00:03.000384","MEAN_MOTION":15.78302328,"ECCENTRICITY":0.00015307,"INCLINATION":97.285,"RA_OF_ASC_NODE":173.9067,"ARG_OF_PERICENTER":80.9818,"MEAN_ANOMALY":212.8013,"EPHEMERIS_TYPE":0,"CLASSIFICATION_TYPE":"U","NORAD_CAT_ID":67699,"ELEMENT_SET_NO":999,"REV_AT_EPOCH":503,"BSTAR":-0.012640841,"MEAN_MOTION_DOT":-0.01888458,"MEAN_MOTION_DDOT":0},{"OBJECT_NAME":"STARLINK-36712","OBJECT_ID":"2026-025H","EPOCH":"2026-03-03T07:06:54.323712","MEAN_MOTION":15.75218994,"ECCENTRICITY":0.00023349,"INCLINATION":97.2856,"RA_OF_ASC_NODE":173.5593,"ARG_OF_PERICENTER":7.7711,"MEAN_ANOMALY":352.359,"EPHEMERIS_TYPE":0,"CLASSIFICATION_TYPE":"U","NORAD_CAT_ID":67700,"ELEMENT_SET_NO":999,"REV_AT_EPOCH":493,"BSTAR":0.0011387303,"MEAN_MOTION_DOT":0.00173439,"MEAN_MOTION_DDOT":0},{"OBJECT_NAME":"STARLINK-36713","OBJECT_ID":"2026-025J","EPOCH":"2026-03-03T07:09:26.866368","MEAN_MOTION":15.75218972,"ECCENTRICITY":0.00028195,"INCLINATION":97.2859,"RA_OF_ASC_NODE":173.5561,"ARG_OF_PERICENTER":1.7664,"MEAN_ANOMALY":358.3611,"EPHEMERIS_TYPE":0,"CLASSIFICATION_TYPE":"U","NORAD_CAT_ID":67701,"ELEMENT_SET_NO":999,"REV_AT_EPOCH":494,"BSTAR":0.0012292366,"MEAN_MOTION_DOT":0.00187554,"MEAN_MOTION_DDOT":0},{"OBJECT_NAME":"STARLINK-36695","OBJECT_ID":"2026-025K","EPOCH":"2026-03-03T07:12:29.491776","MEAN_MOTION":15.75213214,"ECCENTRICITY":9.998e-5,"INCLINATION":97.2862,"RA_OF_ASC_NODE":173.5517,"ARG_OF_PERICENTER":55.2404,"MEAN_ANOMALY":304.8955,"EPHEMERIS_TYPE":0,"CLASSIFICATION_TYPE":"U","NORAD_CAT_ID":67702,"ELEMENT_SET_NO":999,"REV_AT_EPOCH":493,"BSTAR":0.00095172944,"MEAN_MOTION_DOT":0.00144395,"MEAN_MOTION_DDOT":0},{"OBJECT_NAME":"STARLINK-36630","OBJECT_ID":"2026-025L","EPOCH":"2026-03-03T06:31:27.630048","MEAN_MOTION":15.80891519,"ECCENTRICITY":0.00026747,"INCLINATION":97.2848,"RA_OF_ASC_NODE":173.5924,"ARG_OF_PERICENTER":102.1354,"MEAN_ANOMALY":258.0214,"EPHEMERIS_TYPE":0,"CLASSIFICATION_TYPE":"U","NORAD_CAT_ID":67703,"ELEMENT_SET_NO":999,"REV_AT_EPOCH":493,"BSTAR":0.00075141539,"MEAN_MOTION_DOT":0.00146758,"MEAN_MOTION_DDOT":0},{"OBJECT_NAME":"STARLINK-36338","OBJECT_ID":"2026-025M","EPOCH":"2026-03-03T14:00:03.000384","MEAN_MOTION":15.75174258,"ECCENTRICITY":0.00010867,"INCLINATION":97.285,"RA_OF_ASC_NODE":173.9005,"ARG_OF_PERICENTER":92.4737,"MEAN_ANOMALY":193.4913,"EPHEMERIS_TYPE":0,"CLASSIFICATION_TYPE":"U","NORAD_CAT_ID":67704,"ELEMENT_SET_NO":999,"REV_AT_EPOCH":492,"BSTAR":0.00010201372,"MEAN_MOTION_DOT":0.00015103,"MEAN_MOTION_DDOT":0},{"OBJECT_NAME":"STARLINK-36316","OBJECT_ID":"2026-025N","EPOCH":"2026-03-03T13:01:38.450496","MEAN_MOTION":15.75327494,"ECCENTRICITY":6.802e-5,"INCLINATION":97.286,"RA_OF_ASC_NODE":173.8355,"ARG_OF_PERICENTER":39.8906,"MEAN_ANOMALY":320.2409,"EPHEMERIS_TYPE":0,"CLASSIFICATION_TYPE":"U","NORAD_CAT_ID":67705,"ELEMENT_SET_NO":999,"REV_AT_EPOCH":497,"BSTAR":0.002166998,"MEAN_MOTION_DOT":0.00338249,"MEAN_MOTION_DDOT":0},{"OBJECT_NAME":"STARLINK-36707","OBJECT_ID":"2026-025P","EPOCH":"2026-03-03T14:00:03.000384","MEAN_MOTION":15.75165089,"ECCENTRICITY":0.0001298,"INCLINATION":97.2851,"RA_OF_ASC_NODE":173.925,"ARG_OF_PERICENTER":83.5266,"MEAN_ANOMALY":258.443,"EPHEMERIS_TYPE":0,"CLASSIFICATION_TYPE":"U","NORAD_CAT_ID":67706,"ELEMENT_SET_NO":999,"REV_AT_EPOCH":471,"BSTAR":0.00021417819,"MEAN_MOTION_DOT":0.00031901,"MEAN_MOTION_DDOT":0},{"OBJECT_NAME":"STARLINK-36645","OBJECT_ID":"2026-025Q","EPOCH":"2026-03-03T07:01:19.026912","MEAN_MOTION":15.75204258,"ECCENTRICITY":0.00024926,"INCLINATION":97.2864,"RA_OF_ASC_NODE":173.5627,"ARG_OF_PERICENTER":2.0166,"MEAN_ANOMALY":358.1109,"EPHEMERIS_TYPE":0,"CLASSIFICATION_TYPE":"U","NORAD_CAT_ID":67707,"ELEMENT_SET_NO":999,"REV_AT_EPOCH":493,"BSTAR":0.00088611968,"MEAN_MOTION_DOT":0.00134231,"MEAN_MOTION_DDOT":0},{"OBJECT_NAME":"STARLINK-36287","OBJECT_ID":"2026-025R","EPOCH":"2026-03-03T06:17:47.699232","MEAN_MOTION":15.81048927,"ECCENTRICITY":5.835e-5,"INCLINATION":97.2851,"RA_OF_ASC_NODE":173.6033,"ARG_OF_PERICENTER":174.6528,"MEAN_ANOMALY":185.4746,"EPHEMERIS_TYPE":0,"CLASSIFICATION_TYPE":"U","NORAD_CAT_ID":67708,"ELEMENT_SET_NO":999,"REV_AT_EPOCH":494,"BSTAR":0.002764975,"MEAN_MOTION_DOT":0.00571842,"MEAN_MOTION_DDOT":0},{"OBJECT_NAME":"STARLINK-36698","OBJECT_ID":"2026-025S","EPOCH":"2026-03-03T13:43:35.145120","MEAN_MOTION":15.80915947,"ECCENTRICITY":0.00017247,"INCLINATION":97.2857,"RA_OF_ASC_NODE":173.9467,"ARG_OF_PERICENTER":134.3553,"MEAN_ANOMALY":225.7857,"EPHEMERIS_TYPE":0,"CLASSIFICATION_TYPE":"U","NORAD_CAT_ID":67709,"ELEMENT_SET_NO":999,"REV_AT_EPOCH":498,"BSTAR":0.0012082067,"MEAN_MOTION_DOT":0.00238823,"MEAN_MOTION_DDOT":0},{"OBJECT_NAME":"STARLINK-36344","OBJECT_ID":"2026-025T","EPOCH":"2026-03-03T14:00:03.000384","MEAN_MOTION":15.75191293,"ECCENTRICITY":0.00015096,"INCLINATION":97.2847,"RA_OF_ASC_NODE":173.9344,"ARG_OF_PERICENTER":67.9711,"MEAN_ANOMALY":297.9874,"EPHEMERIS_TYPE":0,"CLASSIFICATION_TYPE":"U","NORAD_CAT_ID":67710,"ELEMENT_SET_NO":999,"REV_AT_EPOCH":503,"BSTAR":-0.00027354744,"MEAN_MOTION_DOT":-0.0004074,"MEAN_MOTION_DDOT":0},{"OBJECT_NAME":"STARLINK-36687","OBJECT_ID":"2026-025U","EPOCH":"2026-03-03T13:46:55.050528","MEAN_MOTION":15.80895958,"ECCENTRICITY":0.00022723,"INCLINATION":97.2855,"RA_OF_ASC_NODE":173.9436,"ARG_OF_PERICENTER":63.5488,"MEAN_ANOMALY":296.6013,"EPHEMERIS_TYPE":0,"CLASSIFICATION_TYPE":"U","NORAD_CAT_ID":67711,"ELEMENT_SET_NO":999,"REV_AT_EPOCH":499,"BSTAR":0.0011662166,"MEAN_MOTION_DOT":0.00230083,"MEAN_MOTION_DDOT":0},{"OBJECT_NAME":"STARLINK-36705","OBJECT_ID":"2026-025V","EPOCH":"2026-03-03T06:32:51.336096","MEAN_MOTION":15.75264555,"ECCENTRICITY":0.00013214,"INCLINATION":97.2865,"RA_OF_ASC_NODE":173.586,"ARG_OF_PERICENTER":108.2749,"MEAN_ANOMALY":251.866,"EPHEMERIS_TYPE":0,"CLASSIFICATION_TYPE":"U","NORAD_CAT_ID":67712,"ELEMENT_SET_NO":999,"REV_AT_EPOCH":493,"BSTAR":0.0015451217,"MEAN_MOTION_DOT":0.00237628,"MEAN_MOTION_DDOT":0},{"OBJECT_NAME":"STARLINK-36708","OBJECT_ID":"2026-025W","EPOCH":"2026-03-03T05:55:33.590784","MEAN_MOTION":15.81043377,"ECCENTRICITY":0.00013277,"INCLINATION":97.2866,"RA_OF_ASC_NODE":173.622,"ARG_OF_PERICENTER":127.8035,"MEAN_ANOMALY":232.3354,"EPHEMERIS_TYPE":0,"CLASSIFICATION_TYPE":"U","NORAD_CAT_ID":67713,"ELEMENT_SET_NO":999,"REV_AT_EPOCH":493,"BSTAR":0.002764055,"MEAN_MOTION_DOT":0.00571415,"MEAN_MOTION_DDOT":0},{"OBJECT_NAME":"STARLINK-36702","OBJECT_ID":"2026-025X","EPOCH":"2026-03-03T05:58:23.642400","MEAN_MOTION":15.81051454,"ECCENTRICITY":0.00011003,"INCLINATION":97.2864,"RA_OF_ASC_NODE":173.6191,"ARG_OF_PERICENTER":130.1824,"MEAN_ANOMALY":229.9541,"EPHEMERIS_TYPE":0,"CLASSIFICATION_TYPE":"U","NORAD_CAT_ID":67714,"ELEMENT_SET_NO":999,"REV_AT_EPOCH":493,"BSTAR":0.0027682448,"MEAN_MOTION_DOT":0.00572587,"MEAN_MOTION_DDOT":0},{"OBJECT_NAME":"STARLINK-36718","OBJECT_ID":"2026-025Y","EPOCH":"2026-03-03T07:20:39.828192","MEAN_MOTION":15.80852884,"ECCENTRICITY":0.00030073,"INCLINATION":97.2872,"RA_OF_ASC_NODE":173.695,"ARG_OF_PERICENTER":359.0207,"MEAN_ANOMALY":1.1055,"EPHEMERIS_TYPE":0,"CLASSIFICATION_TYPE":"U","NORAD_CAT_ID":67715,"ELEMENT_SET_NO":999,"REV_AT_EPOCH":494,"BSTAR":0.00082491034,"MEAN_MOTION_DOT":0.00161115,"MEAN_MOTION_DDOT":0},{"OBJECT_NAME":"STARLINK-36715","OBJECT_ID":"2026-025Z","EPOCH":"2026-03-03T05:52:28.803648","MEAN_MOTION":15.81062324,"ECCENTRICITY":0.00013669,"INCLINATION":97.2866,"RA_OF_ASC_NODE":173.6251,"ARG_OF_PERICENTER":160.5789,"MEAN_ANOMALY":199.5532,"EPHEMERIS_TYPE":0,"CLASSIFICATION_TYPE":"U","NORAD_CAT_ID":67716,"ELEMENT_SET_NO":999,"REV_AT_EPOCH":493,"BSTAR":0.0029364153,"MEAN_MOTION_DOT":0.00610348,"MEAN_MOTION_DDOT":0},{"OBJECT_NAME":"STARLINK-36385","OBJECT_ID":"2026-025AA","EPOCH":"2026-03-03T06:01:29.457696","MEAN_MOTION":15.8106126,"ECCENTRICITY":0.00045794,"INCLINATION":97.2867,"RA_OF_ASC_NODE":173.6168,"ARG_OF_PERICENTER":292.142,"MEAN_ANOMALY":67.9362,"EPHEMERIS_TYPE":0,"CLASSIFICATION_TYPE":"U","NORAD_CAT_ID":67717,"ELEMENT_SET_NO":999,"REV_AT_EPOCH":493,"BSTAR":0.0018605405,"MEAN_MOTION_DOT":0.00376331,"MEAN_MOTION_DDOT":0}]
